QIANFAN-145             
1 69104U 26108A   26193.65637783 -.02077301  00000+0 -26562+1 0  9995
2 69104  89.0098  19.5224 0022990  39.9436 320.3411 13.67069415  7862
QIANFAN-146             
1 69105U 26108B   26193.85701641 -.01749128  00000+0 -16475+1 0  9997
2 69105  89.0107  19.4109 0018859  33.4069 326.8287 13.85454725  7948
QIANFAN-147             
1 69106U 26108C   26193.85814210 -.01807323  00000+0 -25804+1 0  9993
2 69106  89.0101  19.4975 0020242  11.5746 348.5872 13.60352652  7885
QIANFAN-148             
1 69107U 26108D   26193.85435542 -.01746300  00000+0 -23823+1 0  9997
2 69107  89.0092  19.4951 0024790  26.5041 333.7379 13.63001446  7888
QIANFAN-149             
1 69108U 26108E   26193.81921937 -.01747804  00000+0 -24843+1 0  9995
2 69108  89.0094  19.5097 0023032  22.2488 337.9663 13.60464661  7880
QIANFAN-150             
1 69109U 26108F   26193.84542964 -.02013742  00000+0 -25723+1 0  9994
2 69109  89.0092  19.4792 0022845  39.8816 320.4017 13.67003630  7893
QIANFAN-151             
1 69110U 26108G   26193.81424741 -.01913094  00000+0 -25272+1 0  9992
2 69110  89.0105  19.4921 0022198  36.8680 323.4001 13.65420093  7880
QIANFAN-152             
1 69111U 26108H   26193.85613372 -.01790103  00000+0 -23667+1 0  9997
2 69111  89.0093  19.4786 0020675  36.0682 324.1867 13.65087546  7901
QIANFAN-153             
1 69112U 26108J   26193.96273255  .00000047  00000+0  37734-4 0  9994
2 69112  89.0094  19.4733 0020909  34.7995 325.4531 13.71837484  7900
QIANFAN-154             
1 69113U 26108K   26193.82297338 -.01926568  00000+0 -27004+1 0  9991
2 69113  89.0099  19.4943 0020488  16.3587 343.8227 13.61788021  7899
QIANFAN-155             
1 69114U 26108L   26193.85261034 -.01865464  00000+0 -24331+1 0  9996
2 69114  89.0100  19.4807 0021618  40.1495 320.1257 13.66099298  7898
QIANFAN-156             
1 69115U 26108M   26193.86289827 -.01845235  00000+0 -23325+1 0  9994
2 69115  89.0110  19.4691 0024757  40.2362 320.0625 13.67948419  7912
QIANFAN-157             
1 69116U 26108N   26193.86799264 -.01723918  00000+0 -19234+1 0  9993
2 69116  89.0095  19.4254 0021872  24.8154 335.4058 13.75282864  7938
QIANFAN-158             
1 69117U 26108P   26191.98392035 -.01958128  00000+0 -22600+1 0  9994
2 69117  89.0095  19.6432 0021132  30.6745 329.5650 13.73101091  7661
QIANFAN-159             
1 69118U 26108Q   26193.84861829 -.01796557  00000+0 -23630+1 0  9994
2 69118  89.0086  19.4561 0022143  35.3567 324.9056 13.65410957  7912
QIANFAN-160             
1 69119U 26108R   26193.87540474 -.01796837  00000+0 -24470+1 0  9992
2 69119  89.0102  19.4653 0023913  25.2920 334.9403 13.63239842  7918
