{"fetched_at":"2026-07-13T18:16:35.050Z","source":"https://celestrak.org/NORAD/elements/gp.php?GROUP=qianfan&FORMAT=JSON","constellation":"qianfan","records":[{"OBJECT_NAME":"QIANFAN-145","OBJECT_ID":"2026-108A","EPOCH":"2026-07-12T15:45:11.044512","CLASSIFICATION_TYPE":"U","MEAN_MOTION":13.67069415,"ECCENTRICITY":0.00229901,"INCLINATION":89.0098,"RA_OF_ASC_NODE":19.5224,"ARG_OF_PERICENTER":39.9436,"MEAN_ANOMALY":320.3411,"EPHEMERIS_TYPE":0,"NORAD_CAT_ID":69104,"ELEMENT_SET_NO":999,"REV_AT_EPOCH":786,"BSTAR":-2.6561684,"MEAN_MOTION_DOT":-0.02077301,"MEAN_MOTION_DDOT":0},{"OBJECT_NAME":"QIANFAN-146","OBJECT_ID":"2026-108B","EPOCH":"2026-07-12T20:34:06.217824","CLASSIFICATION_TYPE":"U","MEAN_MOTION":13.85454725,"ECCENTRICITY":0.0018859,"INCLINATION":89.0107,"RA_OF_ASC_NODE":19.4109,"ARG_OF_PERICENTER":33.4069,"MEAN_ANOMALY":326.8287,"EPHEMERIS_TYPE":0,"NORAD_CAT_ID":69105,"ELEMENT_SET_NO":999,"REV_AT_EPOCH":794,"BSTAR":-1.6475283,"MEAN_MOTION_DOT":-0.01749128,"MEAN_MOTION_DDOT":0},{"OBJECT_NAME":"QIANFAN-147","OBJECT_ID":"2026-108C","EPOCH":"2026-07-12T20:35:43.477440","CLASSIFICATION_TYPE":"U","MEAN_MOTION":13.60352652,"ECCENTRICITY":0.00202425,"INCLINATION":89.0101,"RA_OF_ASC_NODE":19.4975,"ARG_OF_PERICENTER":11.5746,"MEAN_ANOMALY":348.5872,"EPHEMERIS_TYPE":0,"NORAD_CAT_ID":69106,"ELEMENT_SET_NO":999,"REV_AT_EPOCH":788,"BSTAR":-2.5803873,"MEAN_MOTION_DOT":-0.01807323,"MEAN_MOTION_DDOT":0},{"OBJECT_NAME":"QIANFAN-148","OBJECT_ID":"2026-108D","EPOCH":"2026-07-12T20:30:16.308288","CLASSIFICATION_TYPE":"U","MEAN_MOTION":13.63001446,"ECCENTRICITY":0.00247906,"INCLINATION":89.0092,"RA_OF_ASC_NODE":19.4951,"ARG_OF_PERICENTER":26.5041,"MEAN_ANOMALY":333.7379,"EPHEMERIS_TYPE":0,"NORAD_CAT_ID":69107,"ELEMENT_SET_NO":999,"REV_AT_EPOCH":788,"BSTAR":-2.3823034,"MEAN_MOTION_DOT":-0.017463,"MEAN_MOTION_DDOT":0},{"OBJECT_NAME":"QIANFAN-149","OBJECT_ID":"2026-108E","EPOCH":"2026-07-12T19:39:40.553568","CLASSIFICATION_TYPE":"U","MEAN_MOTION":13.60464661,"ECCENTRICITY":0.00230321,"INCLINATION":89.0094,"RA_OF_ASC_NODE":19.5097,"ARG_OF_PERICENTER":22.2488,"MEAN_ANOMALY":337.9663,"EPHEMERIS_TYPE":0,"NORAD_CAT_ID":69108,"ELEMENT_SET_NO":999,"REV_AT_EPOCH":788,"BSTAR":-2.4842794,"MEAN_MOTION_DOT":-0.01747804,"MEAN_MOTION_DDOT":0},{"OBJECT_NAME":"QIANFAN-150","OBJECT_ID":"2026-108F","EPOCH":"2026-07-12T20:17:25.120896","CLASSIFICATION_TYPE":"U","MEAN_MOTION":13.6700363,"ECCENTRICITY":0.00228454,"INCLINATION":89.0092,"RA_OF_ASC_NODE":19.4792,"ARG_OF_PERICENTER":39.8816,"MEAN_ANOMALY":320.4017,"EPHEMERIS_TYPE":0,"NORAD_CAT_ID":69109,"ELEMENT_SET_NO":999,"REV_AT_EPOCH":789,"BSTAR":-2.5723002,"MEAN_MOTION_DOT":-0.02013742,"MEAN_MOTION_DDOT":0},{"OBJECT_NAME":"QIANFAN-151","OBJECT_ID":"2026-108G","EPOCH":"2026-07-12T19:32:30.976224","CLASSIFICATION_TYPE":"U","MEAN_MOTION":13.65420093,"ECCENTRICITY":0.00221987,"INCLINATION":89.0105,"RA_OF_ASC_NODE":19.4921,"ARG_OF_PERICENTER":36.868,"MEAN_ANOMALY":323.4001,"EPHEMERIS_TYPE":0,"NORAD_CAT_ID":69110,"ELEMENT_SET_NO":999,"REV_AT_EPOCH":788,"BSTAR":-2.5272477,"MEAN_MOTION_DOT":-0.01913094,"MEAN_MOTION_DDOT":0},{"OBJECT_NAME":"QIANFAN-152","OBJECT_ID":"2026-108H","EPOCH":"2026-07-12T20:32:49.953408","CLASSIFICATION_TYPE":"U","MEAN_MOTION":13.65087546,"ECCENTRICITY":0.00206759,"INCLINATION":89.0093,"RA_OF_ASC_NODE":19.4786,"ARG_OF_PERICENTER":36.0682,"MEAN_ANOMALY":324.1867,"EPHEMERIS_TYPE":0,"NORAD_CAT_ID":69111,"ELEMENT_SET_NO":999,"REV_AT_EPOCH":790,"BSTAR":-2.3667311,"MEAN_MOTION_DOT":-0.01790103,"MEAN_MOTION_DDOT":0},{"OBJECT_NAME":"QIANFAN-153","OBJECT_ID":"2026-108J","EPOCH":"2026-07-12T23:06:20.092320","CLASSIFICATION_TYPE":"U","MEAN_MOTION":13.71837484,"ECCENTRICITY":0.00209099,"INCLINATION":89.0094,"RA_OF_ASC_NODE":19.4733,"ARG_OF_PERICENTER":34.7995,"MEAN_ANOMALY":325.4531,"EPHEMERIS_TYPE":0,"NORAD_CAT_ID":69112,"ELEMENT_SET_NO":999,"REV_AT_EPOCH":790,"BSTAR":0.000037734255,"MEAN_MOTION_DOT":4.7e-7,"MEAN_MOTION_DDOT":0},{"OBJECT_NAME":"QIANFAN-154","OBJECT_ID":"2026-108K","EPOCH":"2026-07-12T19:45:04.900032","CLASSIFICATION_TYPE":"U","MEAN_MOTION":13.61788021,"ECCENTRICITY":0.00204881,"INCLINATION":89.0099,"RA_OF_ASC_NODE":19.4943,"ARG_OF_PERICENTER":16.3587,"MEAN_ANOMALY":343.8227,"EPHEMERIS_TYPE":0,"NORAD_CAT_ID":69113,"ELEMENT_SET_NO":999,"REV_AT_EPOCH":789,"BSTAR":-2.7004009,"MEAN_MOTION_DOT":-0.01926568,"MEAN_MOTION_DDOT":0},{"OBJECT_NAME":"QIANFAN-155","OBJECT_ID":"2026-108L","EPOCH":"2026-07-12T20:27:45.533376","CLASSIFICATION_TYPE":"U","MEAN_MOTION":13.66099298,"ECCENTRICITY":0.00216181,"INCLINATION":89.01,"RA_OF_ASC_NODE":19.4807,"ARG_OF_PERICENTER":40.1495,"MEAN_ANOMALY":320.1257,"EPHEMERIS_TYPE":0,"NORAD_CAT_ID":69114,"ELEMENT_SET_NO":999,"REV_AT_EPOCH":789,"BSTAR":-2.4330831,"MEAN_MOTION_DOT":-0.01865464,"MEAN_MOTION_DDOT":0},{"OBJECT_NAME":"QIANFAN-156","OBJECT_ID":"2026-108M","EPOCH":"2026-07-12T20:42:34.410528","CLASSIFICATION_TYPE":"U","MEAN_MOTION":13.67948419,"ECCENTRICITY":0.00247571,"INCLINATION":89.011,"RA_OF_ASC_NODE":19.4691,"ARG_OF_PERICENTER":40.2362,"MEAN_ANOMALY":320.0625,"EPHEMERIS_TYPE":0,"NORAD_CAT_ID":69115,"ELEMENT_SET_NO":999,"REV_AT_EPOCH":791,"BSTAR":-2.3324833,"MEAN_MOTION_DOT":-0.01845235,"MEAN_MOTION_DDOT":0},{"OBJECT_NAME":"QIANFAN-157","OBJECT_ID":"2026-108N","EPOCH":"2026-07-12T20:49:54.564096","CLASSIFICATION_TYPE":"U","MEAN_MOTION":13.75282864,"ECCENTRICITY":0.0021872,"INCLINATION":89.0095,"RA_OF_ASC_NODE":19.4254,"ARG_OF_PERICENTER":24.8154,"MEAN_ANOMALY":335.4058,"EPHEMERIS_TYPE":0,"NORAD_CAT_ID":69116,"ELEMENT_SET_NO":999,"REV_AT_EPOCH":793,"BSTAR":-1.9234493,"MEAN_MOTION_DOT":-0.01723918,"MEAN_MOTION_DDOT":0},{"OBJECT_NAME":"QIANFAN-158","OBJECT_ID":"2026-108P","EPOCH":"2026-07-10T23:36:50.718240","CLASSIFICATION_TYPE":"U","MEAN_MOTION":13.73101091,"ECCENTRICITY":0.00211324,"INCLINATION":89.0095,"RA_OF_ASC_NODE":19.6432,"ARG_OF_PERICENTER":30.6745,"MEAN_ANOMALY":329.565,"EPHEMERIS_TYPE":0,"NORAD_CAT_ID":69117,"ELEMENT_SET_NO":999,"REV_AT_EPOCH":766,"BSTAR":-2.2599842,"MEAN_MOTION_DOT":-0.01958128,"MEAN_MOTION_DDOT":0},{"OBJECT_NAME":"QIANFAN-159","OBJECT_ID":"2026-108Q","EPOCH":"2026-07-12T20:22:00.620256","CLASSIFICATION_TYPE":"U","MEAN_MOTION":13.65410957,"ECCENTRICITY":0.00221436,"INCLINATION":89.0086,"RA_OF_ASC_NODE":19.4561,"ARG_OF_PERICENTER":35.3567,"MEAN_ANOMALY":324.9056,"EPHEMERIS_TYPE":0,"NORAD_CAT_ID":69118,"ELEMENT_SET_NO":999,"REV_AT_EPOCH":791,"BSTAR":-2.362954,"MEAN_MOTION_DOT":-0.01796557,"MEAN_MOTION_DDOT":0},{"OBJECT_NAME":"QIANFAN-160","OBJECT_ID":"2026-108R","EPOCH":"2026-07-12T21:00:34.969536","CLASSIFICATION_TYPE":"U","MEAN_MOTION":13.63239842,"ECCENTRICITY":0.00239137,"INCLINATION":89.0102,"RA_OF_ASC_NODE":19.4653,"ARG_OF_PERICENTER":25.292,"MEAN_ANOMALY":334.9403,"EPHEMERIS_TYPE":0,"NORAD_CAT_ID":69119,"ELEMENT_SET_NO":999,"REV_AT_EPOCH":791,"BSTAR":-2.4469685,"MEAN_MOTION_DOT":-0.01796837,"MEAN_MOTION_DDOT":0}]}
